[{"OBJECT_NAME":"M2 PATHFINDER","OBJECT_ID":"2020-037E","EPOCH":"2026-03-09T11:30:45.742176","MEAN_MOTION":15.04175941,"ECCENTRICITY":0.00124059,"INCLINATION":97.8158,"RA_OF_ASC_NODE":258.5983,"ARG_OF_PERICENTER":127.8041,"MEAN_ANOMALY":232.431,"EPHEMERIS_TYPE":0,"CLASSIFICATION_TYPE":"U","NORAD_CAT_ID":45727,"ELEMENT_SET_NO":999,"REV_AT_EPOCH":31050,"BSTAR":0.00032591881,"MEAN_MOTION_DOT":4.468e-5,"MEAN_MOTION_DDOT":0},{"OBJECT_NAME":"STARLINK-3677","OBJECT_ID":"2022-025Q","EPOCH":"2026-03-09T07:11:46.213152","MEAN_MOTION":15.06401696,"ECCENTRICITY":0.00015376,"INCLINATION":53.0566,"RA_OF_ASC_NODE":32.6524,"ARG_OF_PERICENTER":85.1631,"MEAN_ANOMALY":274.9533,"EPHEMERIS_TYPE":0,"CLASSIFICATION_TYPE":"U","NORAD_CAT_ID":51970,"ELEMENT_SET_NO":999,"REV_AT_EPOCH":22086,"BSTAR":1.844148e-5,"MEAN_MOTION_DOT":-7.0e-8,"MEAN_MOTION_DDOT":0}]
